#aV2013 12 26  0  0  0.00000000     288 DD+AD WGS84 FIT  NGA
## 1772 345600.00000000   300.00000000 56652 0.0000000000000
+   31     1  2  3  4  5  6  7  8  9 10 11 12 13 14 15 16 17
+         18 19 20 21 22 23 24 25 26 27 28 29 31 32  0  0  0
+          0  0  0  0  0  0  0  0  0  0  0  0  0  0  0  0  0
+          0  0  0  0  0  0  0  0  0  0  0  0  0  0  0  0  0
+          0  0  0  0  0  0  0  0  0  0  0  0  0  0  0  0  0
++         2  2  2  2  2  2  2  2  2  2  2  2  2  2  2  2  2
++         2  2  2  2  2  2  2  2  2  2  2  2  2  2  0  0  0
++         0  0  0  0  0  0  0  0  0  0  0  0  0  0  0  0  0
++         0  0  0  0  0  0  0  0  0  0  0  0  0  0  0  0  0
++         0  0  0  0  0  0  0  0  0  0  0  0  0  0  0  0  0
%c cc cc ccc ccc cccc cccc cccc cccc ccccc ccccc ccccc ccccc
%c cc cc ccc ccc cccc cccc cccc cccc ccccc ccccc ccccc ccccc
%f  0.0000000  0.000000000  0.00000000000  0.000000000000000
%f  0.0000000  0.000000000  0.00000000000  0.000000000000000
%i    0    0    0    0      0      0      0      0         0
%i    0    0    0    0      0      0      0      0         0
/*      NGA, ST. LOUIS,MO.                                  
/*   EPHEMERIS COMPUTED FROM  1 DAYS OF DATA                
/*   EPOCHA SMOOTHER                                       
/* CCCCCCCCCCCCCCCCCCCCCCCCCCCCCCCCCCCCCCCCCCCCCCCCCCCCCCCCC
*  2013 12 26  7 10  0.00000000
P  1  12544.385410 -22492.322231  -6278.434372     96.075110                    
V  1   7183.561106  -4419.207328  30464.855340      0.027208                    
P  2 -20121.746512   9952.945943 -13547.948252    469.054833                    
V  2   8382.336554 -16085.608063 -24339.646372      0.021923                    
P  3  14078.004821  -6514.019826  21030.336340    304.094239                    
V  3  13803.874472  24425.051337  -1464.923945      0.048834                    
P  4 -15955.437868  -4726.631272 -21049.525186      4.512061                    
V  4  15675.547046 -20840.462896  -7061.428433      0.002602                    
P  5 -24494.511030   3455.893727   9844.903904   -394.346153                    
V  5 -11975.555671  -4611.531515 -27901.413394      0.010764                    
P  6  17222.698122   2167.373984  20253.459535    209.118459                    
V  6   9965.592774  23559.128746 -10630.946581      0.160386                    
P  7    125.962721 -19308.609694  18158.994461    295.686160                    
V  7  15956.353664 -16642.350462 -18184.872237      0.041929                    
P  8  -9287.264772 -11130.877327  22375.609669     10.805201                    
V  8  20217.319696 -19363.484430  -1833.979903      0.002390                    
P  9 -10135.202420 -10451.820528  21680.999147    293.287183                    
V  9  18206.290129 -22262.690607  -2311.714159      0.028091                    
P 10 -23921.959905  -9631.281638  -7556.992555   -107.433122                    
V 10   9414.678305  -1220.976016 -29109.456516     -0.015692                    
P 11  12255.931449 -23012.129769   3914.722214   -450.028598                    
V 11   2813.118260   7121.513323  29687.264635     -0.033100                    
P 12 -10496.745688  12217.862293 -21121.025235    176.295619                    
V 12 -26076.943544  -5718.307686   9877.748724      0.023055                    
P 13  -4611.253272 -25858.028654  -3514.156095     46.276359                    
V 13   3355.840373   3548.506705 -31847.228204     -0.037806                    
P 14  14394.122235  18665.602326 -12163.595553    206.666606                    
V 14   2684.175501  15613.498592  26526.616768     -0.011953                    
P 15  -7903.026842  16733.841554  18906.509167   -154.219273                    
V 15 -11199.275812 -21604.507190  14691.302210     -0.020242                    
P 16  24523.247319  -1870.849539  10438.641974   -237.610805                    
V 16  12553.252571   4187.655686 -28325.483505      0.012717                    
P 17 -15028.584261 -18262.080392 -12087.199455    -53.462703                    
V 17  -3092.057518 -15453.566686  26431.124673     -0.034668                    
P 18  10794.208607  15942.198692  18855.125065    292.515089                    
V 18 -23063.304615  -1827.494072  14754.588421      0.020713                    
P 19   9701.373538 -14998.737447  19390.816100   -427.926284                    
V 19   8261.954018  23655.364696  14495.382560     -0.025738                    
P 20   6731.114510 -15142.572190 -20934.846371    147.672639                    
V 20  26107.608799   3268.235468   6163.679221      0.030884                    
P 21   3264.529525  18634.424868  19056.303205   -334.778962                    
V 21 -15939.404037  17001.802643 -14847.129580     -0.017378                    
P 22  21442.455839  11590.961455  10925.357970    203.026529                    
V 22 -13944.145309   1178.309703  26447.650575      0.021626                    
P 23   1947.354184 -22417.179661 -13691.433505     18.236322                    
V 23   8726.984621  15650.470563 -24612.240857     -0.033133                    
P 24 -15385.665308  21528.774347  -1744.449617    -20.452559                    
V 24  -3705.685556    -98.828104  31636.339436     -0.005860                    
P 25   4064.002588  15289.033400 -21407.812936      4.965842                    
V 25 -26765.403087  -3512.442958  -7499.596881      0.025548                    
P 26 -14232.155292   3162.578108  21561.026804    211.761152                    
V 26  -7890.962232 -27798.461949   -794.852805     -0.105538                    
P 27  15427.776708  -1771.567037  21543.991321    -10.607208                    
V 27   9603.312340  25624.779705  -4744.164310     -0.025256                    
P 28 -18710.156811 -13500.758746  13900.455982    319.566061                    
V 28  16438.588463   2226.694658  25252.475579      0.030944                    
P 29   3271.573362  25396.347699  -7094.574864    498.268830                    
V 29  -5142.114405  -7826.525960 -30169.832016      0.030422                    
P 31  16848.933371   1332.566811 -20399.860489    331.607289                    
V 31 -16388.613938  20387.525955 -11810.797321      0.004598                    
P 32  18005.526153  -8386.663953 -17281.443002   -511.129163                    
V 32  21183.740865   7479.515420  18896.281706      0.054683                    
EOF
